NORAD_CAT_ID,OBJECT_NAME,OBJECT_TYPE,EPOCH,MEAN_MOTION,ECCENTRICITY,INCLINATION,RA_OF_ASC_NODE,ARG_OF_PERICENTER,MEAN_ANOMALY,BSTAR,MEAN_MOTION_DOT,MEAN_MOTION_DDOT,TLE_LINE0,TLE_LINE1,TLE_LINE2,SEMIMAJOR_AXIS,PERIOD,APOGEE,PERIGEE,DECAYED
55410.0,STARLINK-5633,PAYLOAD,2024-01-07 21:34:01,14.98326019,0.0002778,69.9997,280.6784,267.2998,92.7843,4.9929e-05,5.03e-06,0.0,0 STARLINK-5633,1 55410U 23014V   24007.89863255  .00000503  00000-0  49929-4 0  9999,2 55410  69.9997 280.6784 0002778 267.2998  92.7843 14.98326019 52966,6950.205,96.107,574.001,570.139,0.0
55410.0,STARLINK-5633,PAYLOAD,2024-01-08 03:58:33,14.98330466,0.0002855,69.9991,280.0038,275.5821,84.5012,6.8572e-05,7.25e-06,0.0,0 STARLINK-5633,1 55410U 23014V   24008.16566983  .00000725  00000-0  68572-4 0  9999,2 55410  69.9991 280.0038 0002855 275.5821  84.5012 14.98330466 53003,6950.191,96.107,574.041,570.072,0.0
55410.0,STARLINK-5633,PAYLOAD,2024-01-08 19:59:54,14.983301,0.0002757,69.9999,278.3211,267.2677,92.8167,1.3466e-05,6.8e-07,0.0,0 STARLINK-5633,1 55410U 23014V   24008.83327026  .00000068  00000-0  13466-4 0  9998,2 55410  69.9999 278.3211 0002757 267.2677  92.8167 14.98330100 53101,6950.193,96.107,573.974,570.141,0.0
55410.0,STARLINK-5633,PAYLOAD,2024-01-08 21:36:02,14.98328955,0.0002675,69.9995,278.1518,265.6357,94.4497,3.2621e-05,2.96e-06,0.0,0 STARLINK-5633,1 55410U 23014V   24008.90003033  .00000296  00000-0  32621-4 0  9992,2 55410  69.9995 278.1518 0002675 265.6357  94.4497 14.98328955 53111,6950.196,96.107,573.92,570.202,0.0
55410.0,STARLINK-5633,PAYLOAD,2024-01-09 04:00:34,14.98334463,0.0002719,69.9993,277.4796,261.4995,98.5855,3.4688e-05,3.21e-06,0.0,0 STARLINK-5633,1 55410U 23014V   24009.16706604  .00000321  00000-0  34688-4 0  9999,2 55410  69.9993 277.4796 0002719 261.4995  98.5855 14.98334463 53158,6950.179,96.107,573.934,570.154,0.0
55410.0,STARLINK-5633,PAYLOAD,2024-01-09 20:01:55,14.98328788,0.0002591,69.9995,275.7947,272.0396,88.0466,3.5087e-05,3.26e-06,0.0,0 STARLINK-5633,1 55410U 23014V   24009.83466930  .00000326  00000-0  35087-4 0  9997,2 55410  69.9995 275.7947 0002591 272.0396  88.0466 14.98328788 53256,6950.197,96.107,573.862,570.261,0.0
55410.0,STARLINK-5633,PAYLOAD,2024-01-09 21:38:03,14.983302,0.0002606,69.9995,275.6265,272.1098,87.9762,4.0851e-06,-4.4e-07,0.0,0 STARLINK-5633,1 55410U 23014V   24009.90142938 -.00000044  00000-0  40851-5 0  9998,2 55410  69.9995 275.6265 0002606 272.1098  87.9762 14.98330200 53265,6950.192,96.107,573.868,570.246,0.0
55410.0,STARLINK-5633,PAYLOAD,2024-01-10 04:02:35,14.98346908,0.0002545,69.9996,274.953,275.965,84.1219,-0.00022655,-2.796e-05,0.0,0 STARLINK-5633,1 55410U 23014V   24010.16846397 -.00002796  00000-0 -22655-3 0  9995,2 55410  69.9996 274.9530 0002545 275.9650  84.1219 14.98346908 53303,6950.141,96.106,573.774,570.237,0.0
55410.0,STARLINK-5633,PAYLOAD,2024-01-10 18:27:48,14.98328396,0.0002427,69.9997,273.4384,258.1326,101.9561,-2.5394e-05,-3.96e-06,0.0,0 STARLINK-5633,1 55410U 23014V   24010.76931019 -.00000396  00000-0 -25394-4 0  9995,2 55410  69.9997 273.4384 0002427 258.1326 101.9561 14.98328396 53395,6950.198,96.107,573.75,570.376,0.0
55410.0,STARLINK-5633,PAYLOAD,2024-01-11 04:04:36,14.98329179,0.0002424,69.9995,272.4283,255.9188,104.1702,-2.8904e-06,-1.27e-06,0.0,0 STARLINK-5633,1 55410U 23014V   24011.16986918 -.00000127  00000-0 -28904-5 0  9991,2 55410  69.9995 272.4283 0002424 255.9188 104.1702 14.98329179 53457,6950.195,96.107,573.745,570.376,0.0
55410.0,STARLINK-5633,PAYLOAD,2024-01-11 20:05:57,14.98325382,0.0002455,69.9993,270.7451,253.7002,106.3887,-2.0254e-05,-3.35e-06,0.0,0 STARLINK-5633,1 55410U 23014V   24011.83747251 -.00000335  00000-0 -20254-4 0  9990,2 55410  69.9993 270.7451 0002455 253.7002 106.3887 14.98325382 53559,6950.207,96.107,573.778,570.366,0.0
55410.0,STARLINK-5633,PAYLOAD,2024-01-11 21:42:05,14.98327297,0.0002651,69.9994,270.5766,260.0441,100.0419,-6.7714e-05,-9.01e-06,0.0,0 STARLINK-5633,1 55410U 23014V   24011.90423292 -.00000901  00000-0 -67714-4 0  9995,2 55410  69.9994 270.5766 0002651 260.0441 100.0419 14.98327297 53563,6950.201,96.107,573.909,570.224,0.0
55410.0,STARLINK-5633,PAYLOAD,2024-01-12 02:30:29,14.98330321,0.0002882,69.9991,270.0699,269.7911,90.2918,-6.9948e-05,-9.27e-06,0.0,0 STARLINK-5633,1 55410U 23014V   24012.10451132 -.00000927  00000-0 -69948-4 0  9991,2 55410  69.9991 270.0699 0002882 269.7911  90.2918 14.98330321 53593,6950.192,96.107,574.06,570.054,0.0
55410.0,STARLINK-5633,PAYLOAD,2024-01-12 20:07:58,14.98327352,0.0002778,69.9984,268.218,264.0042,96.08,1.5655e-05,9.4e-07,0.0,0 STARLINK-5633,1 55410U 23014V   24012.83887229  .00000094  00000-0  15655-4 0  9990,2 55410  69.9984 268.2180 0002778 264.0042  96.0800 14.98327352 53703,6950.201,96.107,573.997,570.135,0.0
55410.0,STARLINK-5633,PAYLOAD,2024-01-12 21:44:06,14.98327024,0.0002743,69.9985,268.0497,262.827,97.2577,1.4893e-05,8.5e-07,0.0,0 STARLINK-5633,1 55410U 23014V   24012.90563263  .00000085  00000-0  14893-4 0  9990,2 55410  69.9985 268.0497 0002743 262.8270  97.2577 14.98327024 53715,6950.202,96.107,573.974,570.161,0.0
55410.0,STARLINK-5633,PAYLOAD,2024-01-13 02:32:30,14.98329987,0.000268,69.9987,267.5453,262.9838,97.1017,5.1306e-05,5.19e-06,0.0,0 STARLINK-5633,1 55410U 23014V   24013.10591001  .00000519  00000-0  51306-4 0  9996,2 55410  69.9987 267.5453 0002680 262.9838  97.1017 14.98329987 53745,6950.193,96.107,573.921,570.195,0.0
55410.0,STARLINK-5633,PAYLOAD,2024-01-13 20:09:59,14.98329896,0.0002868,69.9986,265.6944,269.6834,90.3997,3.7242e-05,3.51e-06,0.0,0 STARLINK-5633,1 55410U 23014V   24013.84027065  .00000351  00000-0  37242-4 0  9998,2 55410  69.9986 265.6944 0002868 269.6834  90.3997 14.98329896 53859,6950.193,96.107,574.052,570.065,0.0
55410.0,STARLINK-5633,PAYLOAD,2024-01-14 02:34:31,14.98333944,0.000283,69.9986,265.0209,271.2448,88.8387,8.4611e-05,9.17e-06,0.0,0 STARLINK-5633,1 55410U 23014V   24014.10730652  .00000917  00000-0  84611-4 0  9991,2 55410  69.9986 265.0209 0002830 271.2448  88.8387 14.98333944 53894,6950.181,96.107,574.013,570.079,0.0
55410.0,STARLINK-5633,PAYLOAD,2024-01-14 20:11:59,14.98335665,0.00028,69.9986,263.1692,271.2543,88.8296,4.3925e-05,4.31e-06,0.0,0 STARLINK-5633,1 55410U 23014V   24014.84166465  .00000431  00000-0  43925-4 0  9991,2 55410  69.9986 263.1692 0002800 271.2543  88.8296 14.98335665 54007,6950.175,96.107,573.986,570.094,0.0
55410.0,STARLINK-5633,PAYLOAD,2024-01-14 21:48:07,14.98334602,0.0002786,69.9985,263.0008,268.1371,91.9469,5.4724e-05,5.6e-06,0.0,0 STARLINK-5633,1 55410U 23014V   24014.90842449  .00000560  00000-0  54724-4 0  9993,2 55410  69.9985 263.0008 0002786 268.1371  91.9469 14.98334602 54011,6950.179,96.107,573.98,570.107,0.0
55410.0,STARLINK-5633,PAYLOAD,2024-01-15 02:36:31,14.98338778,0.0002603,69.9989,262.4956,267.117,92.9691,0.00011648,1.297e-05,0.0,0 STARLINK-5633,1 55410U 23014V   24015.10869916  .00001297  00000-0  11648-3 0  9999,2 55410  69.9989 262.4956 0002603 267.1170  92.9691 14.98338778 54043,6950.166,96.106,573.84,570.222,0.0
55410.0,STARLINK-5633,PAYLOAD,2024-01-15 18:37:52,14.98329259,0.0002497,70.0002,260.8158,238.178,121.9136,-1.0116e-05,-2.14e-06,0.0,0 STARLINK-5633,1 55410U 23014V   24015.77630672 -.00000214  00000-0 -10116-4 0  9997,2 55410  70.0002 260.8158 0002497 238.1780 121.9136 14.98329259 54146,6950.195,96.107,573.796,570.325,0.0
55410.0,STARLINK-5633,PAYLOAD,2024-01-15 20:14:01,14.98328923,0.0002545,70.0001,260.6472,241.0043,119.0861,-2.6504e-05,-4.09e-06,0.0,0 STARLINK-5633,1 55410U 23014V   24015.84306757 -.00000409  00000-0 -26504-4 0  9993,2 55410  70.0001 260.6472 0002545 241.0043 119.0861 14.98328923 54152,6950.196,96.107,573.83,570.292,0.0
55410.0,STARLINK-5633,PAYLOAD,2024-01-16 02:38:33,14.98326179,0.0002545,69.9998,259.9734,245.6998,114.3895,-4.8416e-05,-6.7e-06,0.0,0 STARLINK-5633,1 55410U 23014V   24016.11011000 -.00000670  00000-0 -48416-4 0  9994,2 55410  69.9998 259.9734 0002545 245.6998 114.3895 14.98326179 54195,6950.205,96.107,573.839,570.301,0.0
55410.0,STARLINK-5633,PAYLOAD,2024-01-16 20:16:01,14.98329447,0.0002603,69.9992,258.1206,252.7176,107.3698,-5.4574e-05,-7.44e-06,0.0,0 STARLINK-5633,1 55410U 23014V   24016.84446726 -.00000744  00000-0 -54574-4 0  9995,2 55410  69.9992 258.1206 0002603 252.7176 107.3698 14.98329447 54303,6950.195,96.107,573.869,570.25,0.0
55410.0,STARLINK-5633,PAYLOAD,2024-01-16 21:52:10,14.98328813,0.0002623,69.9991,257.9521,252.643,107.4442,-6.0975e-05,-8.2e-06,0.0,0 STARLINK-5633,1 55410U 23014V   24016.91122782 -.00000820  00000-0 -60975-4 0  9993,2 55410  69.9991 257.9521 0002623 252.6430 107.4442 14.98328813 54318,6950.197,96.107,573.885,570.239,0.0
55410.0,STARLINK-5633,PAYLOAD,2024-01-17 01:04:26,14.98330167,0.0002592,69.9993,257.616,246.8008,113.2878,-3.5414e-05,-5.15e-06,0.0,0 STARLINK-5633,1 55410U 23014V   24017.04474598 -.00000515  00000-0 -35414-4 0  9994,2 55410  69.9993 257.6160 0002592 246.8008 113.2878 14.98330167 54332,6950.192,96.107,573.859,570.256,0.0
55410.0,STARLINK-5633,PAYLOAD,2024-01-17 20:18:03,14.98322086,0.0002608,69.9992,255.595,253.6178,106.4694,9.667e-06,2.2e-07,0.0,0 STARLINK-5633,1 55410U 23014V   24017.84587145  .00000022  00000-0  96670-5 0  9998,2 55410  69.9992 255.5950 0002608 253.6178 106.4694 14.98322086 54451,6950.217,96.108,573.895,570.27,0.0
55410.0,STARLINK-5633,PAYLOAD,2024-01-17 21:54:11,14.98321547,0.0002617,69.9991,255.4266,253.4431,106.644,2.6649e-06,-6.1e-07,0.0,0 STARLINK-5633,1 55410U 23014V   24017.91263229 -.00000061  00000-0  26649-5 0  9993,2 55410  69.9991 255.4266 0002617 253.4431 106.6440 14.98321547 54462,6950.219,96.108,573.903,570.265,0.0
55410.0,STARLINK-5633,PAYLOAD,2024-01-18 01:06:27,14.98311947,0.0002778,69.9988,255.0885,263.6643,96.4199,0.00017131,1.951e-05,0.0,0 STARLINK-5633,1 55410U 23014V   24018.04615527  .00001951  00000-0  17131-3 0  9992,2 55410  69.9988 255.0885 0002778 263.6643  96.4199 14.98311947 54489,6950.249,96.108,574.044,570.183,0.0
